OBJECT_NAME,OBJECT_ID,EPOCH,MEAN_MOTION,ECCENTRICITY,INCLINATION,RA_OF_ASC_NODE,ARG_OF_PERICENTER,MEAN_ANOMALY,EPHEMERIS_TYPE,CLASSIFICATION_TYPE,NORAD_CAT_ID,ELEMENT_SET_NO,REV_AT_EPOCH,BSTAR,MEAN_MOTION_DOT,MEAN_MOTION_DDOT
STARLINK-32821,2025-037B,2025-05-24T23:42:59.457888,15.38314835,.0003506,69.9996,4.1159,273.2325,86.8454,0,U,63078,999,1514,.10259E-4,.248E-5,0
STARLINK-32817,2025-037C,2025-05-24T18:38:24.566208,15.38315373,.0003513,69.9991,4.5788,267.9290,92.1487,0,U,63079,999,1527,.86837E-5,.188E-5,0
STARLINK-32906,2025-037D,2025-05-24T18:50:06.719136,15.38321180,.0003234,69.9995,4.6077,266.2587,93.8222,0,U,63080,999,1528,.16848E-4,.497E-5,0
STARLINK-32895,2025-037E,2025-05-25T00:06:08.670528,15.38311141,.0003045,70.0021,4.1744,267.3399,92.7432,0,U,63081,999,1516,.37886E-4,.1294E-4,0
STARLINK-32933,2025-037F,2025-05-25T00:41:15.169920,15.38315658,.0003229,69.9988,3.8498,268.7802,91.3007,0,U,63082,999,1526,.25624E-4,.83E-5,0
STARLINK-32932,2025-037G,2025-05-24T18:03:17.790336,15.38318628,.000321,69.9998,4.9000,267.5083,92.5729,0,U,63083,999,1513,.32243E-4,.1081E-4,0
STARLINK-32908,2025-037H,2025-05-25T01:10:36.922944,15.38401483,.0003639,69.9999,3.9259,269.2705,90.8058,0,U,63084,999,1501,-.5087E-3,-.19418E-3,0
STARLINK-32505,2025-037J,2025-05-24T17:39:53.157888,15.38315682,.0004279,70.0012,4.8404,268.4777,91.5913,0,U,63085,999,1522,-.9548E-5,-.503E-5,0
STARLINK-32914,2025-037K,2025-05-24T18:32:25.625184,15.38318703,.0003341,69.9989,4.5634,269.1195,90.9601,0,U,63086,999,1528,.48723E-5,.44E-6,0
STARLINK-32918,2025-037L,2025-05-25T00:00:09.431424,15.38318785,.0003334,70.0015,4.1578,269.4113,90.6685,0,U,63087,999,1530,.72179E-4,.2595E-4,0
STARLINK-32912,2025-037M,2025-05-25T00:12:07.534656,15.38310838,.0003484,69.9994,4.1868,266.4148,93.6633,0,U,63088,999,1531,.14989E-4,.427E-5,0
STARLINK-32910,2025-037N,2025-05-24T18:44:23.317152,15.38321289,.0003133,69.9990,4.5921,270.0883,89.9937,0,U,63089,999,1528,.18547E-5,-.71E-6,0
STARLINK-32903,2025-037P,2025-05-25T00:35:16.434528,15.38313071,.0003485,69.9996,4.2448,268.8048,91.2732,0,U,63090,999,1494,-.15215E-5,-.199E-5,0
STARLINK-32925,2025-037Q,2025-05-24T23:48:42.561792,15.38322191,.0003102,70.0000,4.1257,264.9683,95.1142,0,U,63091,999,1525,-.22451E-4,-.991E-5,0
STARLINK-32924,2025-037R,2025-05-25T00:23:34.189152,15.38315779,.000294,69.9997,4.2158,256.1562,103.9291,0,U,63092,999,1531,-.14273E-4,-.682E-5,0
STARLINK-32900,2025-037S,2025-05-24T17:48:43.951104,15.38317465,.0003601,69.9991,4.8614,272.6116,87.4651,0,U,63093,999,1513,.20096E-4,.62E-5,0
STARLINK-32927,2025-037T,2025-05-25T00:26:25.914336,15.38324658,.0002421,70.0013,4.2242,256.2939,103.7971,0,U,63094,999,1526,.63894E-4,.2281E-4,0
STARLINK-32907,2025-037U,2025-05-25T01:13:45.406272,15.38325342,.0003023,69.9993,3.9306,264.3456,95.7379,0,U,63095,999,1527,-.36832E-4,-.1536E-4,0
STARLINK-32911,2025-037V,2025-05-24T17:37:01.265088,15.38317792,.0003649,69.9996,4.8346,269.8085,90.2676,0,U,63096,999,1527,.40432E-5,.12E-6,0
STARLINK-32923,2025-037W,2025-05-25T00:14:59.420544,15.38311218,.0003092,70.0024,4.1940,286.5405,73.5434,0,U,63097,999,1531,.18357E-4,.554E-5,0
STARLINK-32913,2025-037X,2025-05-25T00:38:09.399552,15.38307324,.0002295,70.0013,3.8424,269.3519,90.7397,0,U,63098,999,1526,.19068E-4,.581E-5,0
STARLINK-11629 [DTC],2025-039A,2025-05-25T03:18:28.287360,15.77852959,.0001847,42.9973,177.0457,290.0318,70.0353,0,U,63104,999,1494,.24211E-5,-.78E-6,0
STARLINK-11624 [DTC],2025-039B,2025-05-24T11:59:55.565952,15.77856937,.0001297,43.0018,180.8638,264.2820,95.7903,0,U,63105,999,1412,-.76876E-7,-.512E-5,0
STARLINK-11584 [DTC],2025-039C,2025-05-24T02:45:59.407488,15.77856006,.0001128,43.0021,183.1396,289.5161,70.5587,0,U,63106,999,1406,.158E-5,-.223E-5,0
STARLINK-11627 [DTC],2025-039D,2025-05-25T02:57:23.563296,15.77853710,.0001868,43.0041,176.9308,288.8642,71.2025,0,U,63107,999,1493,.10542E-5,-.316E-5,0
STARLINK-11632 [DTC],2025-039E,2025-05-25T02:50:21.799104,15.77854134,.0001688,43.0026,176.8898,288.0725,71.9961,0,U,63108,999,1493,.13831E-5,-.258E-5,0
STARLINK-11625 [DTC],2025-039F,2025-05-24T03:56:03.675552,15.77855381,.0001399,43.0000,182.6318,262.4624,97.6087,0,U,63109,999,1407,.91999E-6,-.338E-5,0
STARLINK-11601 [DTC],2025-039G,2025-05-25T02:36:18.524736,15.77853937,.0001593,42.9968,176.8040,264.3500,95.7188,0,U,63110,999,1493,.12045E-5,-.289E-5,0
STARLINK-11630 [DTC],2025-039H,2025-05-24T09:46:37.349472,15.77839762,.0001462,43.0026,181.0101,283.2540,76.8167,0,U,63111,999,1411,.29277E-4,.4595E-4,0
STARLINK-11590 [DTC],2025-039J,2025-05-24T12:49:19.390944,15.74182464,.0001543,43.0015,180.2397,258.1573,101.9123,0,U,63112,999,1413,-.17685E-2,-.254437E-2,0
STARLINK-11598 [DTC],2025-039K,2025-05-24T09:32:34.066464,15.77854861,.0001296,43.0020,180.9329,272.4859,87.5863,0,U,63113,999,1411,-.20946E-5,-.863E-5,0
STARLINK-11600 [DTC],2025-039L,2025-05-25T03:39:21.387168,15.77855241,.0001096,43.0009,176.2640,270.7360,89.3385,0,U,63114,999,1494,.27206E-5,-.25E-6,0
STARLINK-11597 [DTC],2025-039M,2025-05-24T10:49:39.893952,15.77853721,.0001293,43.0014,180.4663,273.2194,86.8529,0,U,63115,999,1412,.1091E-5,-.309E-5,0
STARLINK-11591 [DTC],2025-039N,2025-05-24T09:11:29.151456,15.77853730,.0001363,42.9997,180.8107,272.1849,87.8865,0,U,63116,999,1478,.45338E-5,.29E-5,0
STARLINK-32955,2025-039P,2025-05-24T12:14:42.534528,15.27575439,.0001282,43.0004,205.6456,274.4999,85.5707,0,U,63117,999,1384,.25808E-4,.448E-5,0
STARLINK-32945,2025-039Q,2025-05-25T05:41:30.739776,15.27660873,.0002391,42.9993,201.6333,269.9623,90.0955,0,U,63118,999,1467,-.56092E-3,-.15704E-3,0
STARLINK-32941,2025-039R,2025-05-24T20:53:58.834176,15.40703365,.0001697,43.0017,199.7222,266.5866,93.4796,0,U,63119,999,1394,-.32843E-4,-.1675E-4,0
STARLINK-32942,2025-039S,2025-05-24T14:09:12.880224,15.27572844,.000112,43.0012,205.3740,270.6403,89.4321,0,U,63120,999,1385,.16305E-4,.187E-5,0
STARLINK-32947,2025-039T,2025-05-25T05:04:31.557504,15.27571005,.0001171,43.0016,201.4457,268.7572,91.3145,0,U,63121,999,1467,.38905E-4,.808E-5,0
STARLINK-32961,2025-039U,2025-05-24T05:00:55.694016,15.27572702,.0000998,42.9986,207.6840,279.2729,80.8010,0,U,63122,999,1379,.33619E-4,.663E-5,0
STARLINK-32948,2025-039V,2025-05-24T20:31:23.371104,15.27574626,.0001287,43.0027,203.9263,281.2933,78.7774,0,U,63123,999,1389,.41546E-5,-.148E-5,0
STARLINK-32957,2025-039W,2025-05-25T04:42:31.783680,15.27590457,.0000885,42.9995,202.1964,273.4979,86.5771,0,U,63124,999,1464,-.1232E-3,-.3651E-4,0
STARLINK-11609 [DTC],2025-043A,2025-05-24T14:15:56.401920,15.70870181,.0001596,43.0000,193.4097,282.5464,77.5225,0,U,63132,999,1399,-.6891E-4,-.9292E-4,0
STARLINK-11604 [DTC],2025-043B,2025-05-24T13:14:58.283808,15.70825902,.0001523,43.0009,193.9617,262.8697,97.1997,0,U,63133,999,1387,.11236E-4,.993E-5,0
STARLINK-11605 [DTC],2025-043C,2025-05-25T04:07:37.779456,15.70884064,.0001471,42.9961,190.0014,283.3092,76.7612,0,U,63134,999,1397,-.80685E-4,-.10807E-3,0
STARLINK-11610 [DTC],2025-043D,2025-05-25T04:15:19.175328,15.70805537,.000115,43.0012,190.0461,195.8439,164.2393,0,U,63135,999,1397,-.12838E-4,-.2092E-4,0
STARLINK-11613 [DTC],2025-043E,2025-05-24T14:38:53.458080,15.70827866,.000128,42.9986,193.5364,273.4950,86.5771,0,U,63136,999,1400,.6187E-6,-.369E-5,0
STARLINK-11616 [DTC],2025-043F,2025-05-24T19:37:37.515648,15.70939794,.0003284,42.9966,191.6242,286.7885,73.2622,0,U,63137,999,1404,.19708E-2,.261675E-2,0
STARLINK-11611 [DTC],2025-043G,2025-05-25T03:37:03.254304,15.70828777,.0001438,43.0005,189.8276,263.1655,96.9049,0,U,63138,999,1409,.24384E-5,-.136E-5,0
STARLINK-11628 [DTC],2025-043H,2025-05-24T14:00:39.519072,15.70828874,.000183,43.0022,193.3188,273.9627,86.1032,0,U,63139,999,1400,.49012E-5,.18E-5,0
STARLINK-11607 [DTC],2025-043J,2025-05-25T03:21:45.904032,15.70826502,.0001447,43.0005,189.7417,272.1008,87.9693,0,U,63140,999,1409,.23633E-5,-.145E-5,0
STARLINK-11522 [DTC],2025-043K,2025-05-24T10:42:15.098976,15.70827340,.0001191,42.9998,193.9995,258.8539,101.2195,0,U,63141,999,1380,.42308E-5,.95E-6,0
STARLINK-11503 [DTC],2025-043L,2025-05-24T10:19:18.833376,15.70829536,.0001472,43.0004,193.8719,266.6354,93.4345,0,U,63142,999,1380,.32509E-5,-.31E-6,0
STARLINK-11579 [DTC],2025-043M,2025-05-24T10:26:57.626880,15.70828538,.0001991,43.0002,193.9125,282.9571,77.1075,0,U,63143,999,1386,.32929E-5,-.27E-6,0
STARLINK-11581 [DTC],2025-043N,2025-05-24T11:05:11.241024,15.70830748,.0001188,42.9996,194.1271,282.4723,77.6012,0,U,63144,999,1398,.39367E-5,.57E-6,0
STARLINK-32949,2025-043P,2025-05-24T16:04:19.202016,15.40694376,.0001332,43.0020,210.7886,285.6436,74.4274,0,U,63145,999,1370,.27087E-4,.828E-5,0
STARLINK-32952,2025-043Q,2025-05-25T04:55:08.842080,15.27566643,.0000879,42.9998,212.2339,276.7637,83.3114,0,U,63146,999,1379,.76155E-4,.1833E-4,0
STARLINK-32936,2025-043R,2025-05-24T21:08:03.878016,15.27573075,.0000752,42.9978,214.1202,276.5198,83.5568,0,U,63147,999,1311,.2349E-5,-.197E-5,0
STARLINK-32937,2025-043S,2025-05-25T04:47:16.636704,15.40700658,.0002008,43.0023,207.8889,282.3052,77.7580,0,U,63148,999,1377,-.15204E-4,-.939E-5,0
STARLINK-32939,2025-043T,2025-05-25T05:09:52.243200,15.40719366,.0001246,42.9996,208.0084,287.3248,72.7472,0,U,63149,999,1384,-.42452E-4,-.2077E-4,0
STARLINK-32919,2025-043U,2025-05-24T11:14:35.051136,15.40689241,.0001584,43.0013,211.8589,281.2784,78.7894,0,U,63150,999,1378,.36257E-4,.1211E-4,0
STARLINK-32876,2025-043V,2025-05-24T14:08:23.084448,15.40697098,.0000996,43.0007,211.0440,269.6098,90.4645,0,U,63151,999,1312,.56171E-5,-.69E-6,0
STARLINK-32915,2025-043W,2025-05-25T05:00:40.994784,15.27582310,.0001,42.9970,212.2322,270.4507,89.6230,0,U,63152,999,1378,-.46255E-4,-.1535E-4,0
STARLINK-11602 [DTC],2025-048A,2025-05-24T15:35:05.091936,15.77867537,.0002962,43.0031,262.9492,301.2584,58.7996,0,U,63183,999,1267,.59868E-5,.542E-5,0
STARLINK-11617 [DTC],2025-048B,2025-05-25T00:35:00.463488,15.77833726,.0001213,42.9984,260.5916,271.8604,88.2128,0,U,63184,999,1269,.22537E-4,.3421E-4,0
